[{"OBJECT_NAME":"STARLINK-30224","OBJECT_ID":"2023-102N","EPOCH":"2026-03-09T22:00:01.999584","MEAN_MOTION":15.1597228,"ECCENTRICITY":0.00017033,"INCLINATION":43.0005,"RA_OF_ASC_NODE":246.5259,"ARG_OF_PERICENTER":277.718,"MEAN_ANOMALY":82.2955,"EPHEMERIS_TYPE":0,"CLASSIFICATION_TYPE":"U","NORAD_CAT_ID":57416,"ELEMENT_SET_NO":999,"REV_AT_EPOCH":577,"BSTAR":0.0051457482,"MEAN_MOTION_DOT":0.00101766,"MEAN_MOTION_DDOT":0},{"OBJECT_NAME":"ELECTRON KICK STAGE R\/B","OBJECT_ID":"2020-037F","EPOCH":"2026-03-09T12:31:51.369312","MEAN_MOTION":15.17920372,"ECCENTRICITY":0.00076355,"INCLINATION":97.7675,"RA_OF_ASC_NODE":269.629,"ARG_OF_PERICENTER":117.3214,"MEAN_ANOMALY":242.8797,"EPHEMERIS_TYPE":0,"CLASSIFICATION_TYPE":"U","NORAD_CAT_ID":45728,"ELEMENT_SET_NO":999,"REV_AT_EPOCH":10307,"BSTAR":0.00051900437,"MEAN_MOTION_DOT":0.00010471,"MEAN_MOTION_DDOT":0}]
